     3.03           NAVIGATION DATA     M (Mixed)           RINEX VERSION / TYPE
BCEmerge            congo               20181002 004602 GMT PGM / RUN BY / DATE 
Merged GPS/GLO/GAL/BDS/QZS/SBAS/IRNSS navigation file       COMMENT 
based on CONGO and MGEX tracking data                       COMMENT 
DLR: O. Montenbruck;  TUM: P. Steigenberger                 COMMENT 
GAUT -7.4505805969e-09 2.664535259e-15      0 2021          TIME SYSTEM CORR    
GPGA -1.3562384993e-08-3.241851232e-14  86400 2021          TIME SYSTEM CORR    
GPUT  4.6566128731e-09 1.332267630e-14 233472 2021          TIME SYSTEM CORR    
QZUT  8.3819031715e-09 0.000000000e+00 266240 2021          TIME SYSTEM CORR    
    18                                                      LEAP SECONDS        
                                                            END OF HEADER       
C21 2018 10 01 11 00 00 2.519082045183e-04 1.197086874072e-11 0.000000000000e+00
     1.000000000000e+01-8.703125000000e+00 4.154815921903e-09 4.197587666489e-01
    -5.643814802170e-07 5.837846547365e-04 6.957445293665e-06 5.282612573624e+03
     1.260000000000e+05 3.539025783539e-08 2.595288169815e+00 1.071020960808e-08
     9.603721011814e-01 2.208906250000e+02-8.519250491607e-01-6.909930683492e-09
    -1.892935991239e-11 0.000000000000e+00 6.650000000000e+02 0.000000000000e+00
     2.000000000000e+00 1.000000000000e+00 1.130000000000e-08 1.130000000000e-08
     1.260180000000e+05 1.000000000000e+01                                      
C21 2018 10 01 12 00 00 2.519513946027e-04 1.197797416808e-11 0.000000000000e+00
     1.100000000000e+01-8.484375000000e+00 4.191246010791e-09 9.070940583942e-01
    -5.443580448627e-07 5.838869838044e-04 6.768386811018e-06 5.282612928391e+03
     1.296000000000e+05 1.862645149231e-08 2.595263288505e+00-4.656612873077e-10
     9.603719622042e-01 2.219843750000e+02-8.516886957271e-01-6.924931308328e-09
    -1.607209803882e-11 0.000000000000e+00 6.650000000000e+02 0.000000000000e+00
     2.000000000000e+00 1.000000000000e+00 1.130000000000e-08 1.130000000000e-08
     1.296180000000e+05 1.100000000000e+01                                      
C21 2018 10 01 13 00 00 2.519944682717e-04 1.198507959543e-11 0.000000000000e+00
     1.200000000000e+01-5.000000000000e+00 4.210889686172e-09 1.393738118421e+00
    -2.658925950527e-07 5.839838413522e-04 6.615649908781e-06 5.282614004135e+03
     1.332000000000e+05 8.847564458847e-09 2.595238323808e+00-1.024454832077e-08
     9.603718685775e-01 2.238125000000e+02-8.507610666876e-01-6.933503093949e-09
    -1.464346710204e-11 0.000000000000e+00 6.650000000000e+02 0.000000000000e+00
     2.000000000000e+00 1.000000000000e+00 1.130000000000e-08 1.130000000000e-08
     1.332180000000e+05 1.200000000000e+01                                      
C21 2018 10 01 14 00 00 2.520376583561e-04 1.199218502279e-11 0.000000000000e+00
     1.300000000000e+01 9.375000000000e-01 4.212675474843e-09 1.879799347497e+00
     9.080395102501e-08 5.837131757289e-04 6.792601197958e-06 5.282615812302e+03
     1.368000000000e+05 4.610046744347e-08 2.595213217207e+00-8.381903171539e-09
     9.603717603215e-01 2.207968750000e+02-8.492507851726e-01-6.949218034253e-09
     8.571785620706e-12 0.000000000000e+00 6.650000000000e+02 0.000000000000e+00
     2.000000000000e+00 1.000000000000e+00 1.130000000000e-08 1.130000000000e-08
     1.368180000000e+05 1.300000000000e+01                                      
C21 2018 10 01 15 00 00 2.520808484405e-04 1.199929045015e-11 0.000000000000e+00
     1.400000000000e+01 2.156250000000e+00 4.198032007741e-09 2.366050829068e+00
     1.583248376846e-07 5.829676520079e-04 7.216352969408e-06 5.282617902756e+03
     1.404000000000e+05 5.820766091347e-08 2.595187908725e+00 6.286427378654e-08
     9.603717837282e-01 2.131406250000e+02-8.479311906405e-01-6.953146769329e-09
     6.000249934494e-11 0.000000000000e+00 6.650000000000e+02 0.000000000000e+00
     2.000000000000e+00 1.000000000000e+00 1.130000000000e-08 1.130000000000e-08
     1.404180000000e+05 1.400000000000e+01                                      
C21 2018 10 01 16 00 00 2.521238056943e-04 1.190691989450e-11 0.000000000000e+00
     1.000000000000e+00-1.640625000000e+00 4.167673600334e-09 2.853190775900e+00
    -6.100162863731e-08 5.822529783472e-04 7.438473403454e-06 5.282619380951e+03
     1.440000000000e+05-3.539025783539e-08 2.595162486134e+00 9.266659617424e-08
     9.603721231252e-01 2.092031250000e+02-8.475006479981e-01-6.917430995910e-09
     1.246480492344e-10 0.000000000000e+00 6.650000000000e+02 0.000000000000e+00
     2.000000000000e+00 1.000000000000e+00 1.130000000000e-08 1.130000000000e-08
     1.440180000000e+05 1.000000000000e+00                                      
C21 2018 10 01 17 00 00 2.521675778553e-04 1.203659394378e-11 0.000000000000e+00
     1.000000000000e+00-2.234375000000e+00 4.132672142383e-09-2.942447574306e+00
    -1.136213541031e-07 5.821754457429e-04 7.446855306625e-06 5.282619527817e+03
     1.476000000000e+05-7.776543498039e-08 2.595137261038e+00 6.519258022308e-09
     9.603728472696e-01 2.089218750000e+02-8.474776640921e-01-6.850999657349e-09
     1.682212928064e-10 0.000000000000e+00 6.650000000000e+02 0.000000000000e+00
     2.000000000000e+00 1.000000000000e+00 1.130000000000e-08 1.130000000000e-08
     1.476180000000e+05 1.000000000000e+00                                      
C21 2018 10 01 18 00 00 2.522105351090e-04 1.199129684437e-11 0.000000000000e+00
     1.000000000000e+00-1.078125000000e+00 4.133029300117e-09-2.455456112197e+00
    -5.401670932770e-08 5.825775442645e-04 7.635448127985e-06 5.282618509293e+03
     1.512000000000e+05-6.286427378654e-08 2.595112571369e+00-1.303851604462e-08
     9.603735523962e-01 2.052343750000e+02-8.468994925347e-01-6.830998824234e-09
     1.735786588193e-10 0.000000000000e+00 6.650000000000e+02 0.000000000000e+00
     2.000000000000e+00 1.000000000000e+00 1.130000000000e-08 1.130000000000e-08
     1.512180000000e+05 1.000000000000e+00                                      
C21 2018 10 01 19 00 00 2.522537251934e-04 1.199129684437e-11 0.000000000000e+00
     2.000000000000e+00-4.109375000000e+00 4.138029508396e-09-1.969022068690e+00
    -2.323649823666e-07 5.828691646457e-04 7.885508239269e-06 5.282617088318e+03
     1.548000000000e+05-5.401670932770e-08 2.595087988494e+00-1.629814505577e-08
     9.603741902284e-01 2.009843750000e+02-8.457636156437e-01-6.827784404627e-09
     1.750072897561e-10 0.000000000000e+00 6.650000000000e+02 0.000000000000e+00
     2.000000000000e+00 1.000000000000e+00 1.130000000000e-08 1.130000000000e-08
     1.548180000000e+05 2.000000000000e+00                                      
C22 2018 10 01 00 00 00 3.025041660294e-04 3.903100065372e-11 0.000000000000e+00
     1.000000000000e+00-5.515625000000e+00 4.198746323209e-09 1.458412233066e+00
    -4.395842552185e-07 6.072338437662e-04 6.631016731262e-06 5.282615104675e+03
     8.640000000000e+04 4.563480615616e-08 2.595468872382e+00 1.257285475731e-08
     9.603757072745e-01 2.276562500000e+02-1.879878097840e-01-6.964932974558e-09
     7.821754378894e-11 0.000000000000e+00 6.650000000000e+02 0.000000000000e+00
     2.000000000000e+00 1.000000000000e+00 1.250000000000e-08 1.250000000000e-08
     8.716800000000e+04 1.000000000000e+00                                      
C22 2018 10 01 01 00 00 3.026446793228e-04 3.903100065372e-11 0.000000000000e+00
     2.000000000000e+00-7.203125000000e+00 4.134815088788e-09 1.944756833762e+00
    -4.717148840427e-07 6.069761002436e-04 6.753485649824e-06 5.282616630554e+03
     9.000000000000e+04 1.862645149231e-08 2.595443579992e+00 6.007030606270e-08
     9.603760159502e-01 2.220312500000e+02-1.867612480642e-01-6.956718346671e-09
     1.167905790821e-10 0.000000000000e+00 6.650000000000e+02 0.000000000000e+00
     2.000000000000e+00 1.000000000000e+00 1.250000000000e-08 1.250000000000e-08
     9.001800000000e+04 2.000000000000e+00                                      
C22 2018 10 01 02 00 00 3.027840284631e-04 3.897593359170e-11 0.000000000000e+00
     3.000000000000e+00-9.187500000000e+00 4.083384375064e-09 2.431997778995e+00
    -4.637986421585e-07 6.067804060876e-04 6.763730198145e-06 5.282617172241e+03
     9.360000000000e+04-3.306195139885e-08 2.595418318322e+00 3.818422555923e-08
     9.603765455266e-01 2.212031250000e+02-1.864316716389e-01-6.926002781530e-09
     1.489347751598e-10 0.000000000000e+00 6.650000000000e+02 0.000000000000e+00
     2.000000000000e+00 1.000000000000e+00 1.250000000000e-08 1.250000000000e-08
     9.361800000000e+04 3.000000000000e+00                                      
C22 2018 10 01 03 00 00 3.029244253412e-04 3.898570355432e-11 0.000000000000e+00
     4.000000000000e+00-8.781250000000e+00 4.043739866568e-09 2.919591761470e+00
    -3.729946911335e-07 6.068802904338e-04 6.849877536297e-06 5.282616966248e+03
     9.720000000000e+04-2.747401595116e-08 2.595393281942e+00-5.122274160385e-09
     9.603772389497e-01 2.206718750000e+02-1.864555084261e-01-6.892072796782e-09
     1.632210845276e-10 0.000000000000e+00 6.650000000000e+02 0.000000000000e+00
     2.000000000000e+00 1.000000000000e+00 1.250000000000e-08 1.250000000000e-08
     9.721800000000e+04 4.000000000000e+00                                      
C22 2018 10 01 04 00 00 3.030647058040e-04 3.899547351693e-11 0.000000000000e+00
     5.000000000000e+00-9.093750000000e+00 4.023381875719e-09-2.876142360131e+00
    -3.939494490623e-07 6.071367533877e-04 7.007736712694e-06 5.282616451263e+03
     1.008000000000e+05-5.122274160385e-09 2.595368484018e+00 8.381903171539e-09
     9.603779352987e-01 2.187812500000e+02-1.863366931455e-01-6.870286174996e-09
     1.600066649198e-10 0.000000000000e+00 6.650000000000e+02 0.000000000000e+00
     2.000000000000e+00 1.000000000000e+00 1.250000000000e-08 1.250000000000e-08
     1.008180000000e+05 5.000000000000e+00                                      
